ONEWEB-0195             
1 48240U 21031AG  24070.51559317  .00000280  00000+0  72042-3 0  9991
2 48240  87.8895  94.6161 0001509 101.2718 258.8581 13.14500928139280
ONEWEB-0201             
1 48241U 21031AH  24071.11343169  .00000132  00000+0  32192-3 0  9993
2 48241  87.8896  94.5279 0001824  97.1573 262.9764 13.14501185139592
ONEWEB-0207             
1 48242U 21031AJ  24070.78835359 -.00000173  00000+0 -50230-3 0  9993
2 48242  87.8896  94.5598 0002091 100.1170 260.0195 13.14502319139465
ONEWEB-0208             
1 48243U 21031AK  24070.77010174 -.00000079  00000+0 -24860-3 0  9998
2 48243  87.8900  94.5790 0001769  95.8430 264.2901 13.14500411139479
ONEWEB-0200             
1 48244U 21031AL  24070.50528609  .00000214  00000+0  54184-3 0  9998
2 48244  87.8891  94.6305 0001670  95.5754 264.5566 13.14501149139366
ONEWEB-0217             
1 48245U 21031AM  24071.51068479  .00000256  00000+0  65712-3 0  9990
2 48245  87.8893  94.4142 0001517  94.1814 265.9489 13.14502206139452
ONEWEB-0211             
1 48767U 21045A   24070.90677928  .00000145  00000+0  35235-3 0  9995
2 48767  87.8961  64.0177 0001860  86.6298 273.5045 13.15547798135513
ONEWEB-0223             
1 48768U 21045B   24071.23319177 -.00000133  00000+0 -38820-3 0  9994
2 48768  87.8962  63.9565 0001736  62.9023 297.2284 13.15547588136683
